KUIPER-00177            
1 67766U 26030C   26064.58639961  .00033760  00000+0  94458-3 0  9999
2 67766  51.8827 238.8239 0001092  16.6199 343.4823 15.36344070  4468
KUIPER-00178            
1 67767U 26030D   26064.60043599  .00025681  00000+0  74485-3 0  9990
2 67767  51.8836 238.9144 0006152  34.5887 325.5498 15.35348062  4463
KUIPER-00180            
1 67768U 26030E   26064.56616743  .00028315  00000+0  90433-3 0  9991
2 67768  51.8802 239.4193 0014751  57.7021 302.5391 15.32152762  4451
KUIPER-00197            
1 67769U 26030F   26064.58856056  .00035108  00000+0  98567-3 0  9991
2 67769  51.8829 238.8387 0001411  51.5362 308.5750 15.36217152  4463
KUIPER-00198            
1 67770U 26030G   26064.59346787  .00033660  00000+0  95639-3 0  9997
2 67770  51.8809 238.8647 0003153  37.5140 322.6065 15.35861436  4460
KUIPER-00199            
1 67771U 26030H   26064.61545302  .00024025  00000+0  72328-3 0  9990
2 67771  51.8812 239.0046 0010367  49.4398 310.7488 15.34180162  4469
KUIPER-00200            
1 67772U 26030J   26064.58016499  .00026859  00000+0  74193-3 0  9996
2 67772  51.8804 238.7804 0001260 220.0205 140.0689 15.36861856  4460
KUIPER-00203            
1 67773U 26030K   26064.58335648 -.01442063  00000+0 -66101-1 0  9997
2 67773  51.8815 239.4231 0011104  48.3228 344.6183 15.23319871  3022
KUIPER-00205            
1 67774U 26030L   26064.58930919  .00032511  00000+0  91418-3 0  9991
2 67774  51.8809 238.8383 0002911  10.3146 349.7900 15.36205031  4469
KUIPER-00208            
1 67775U 26030M   26064.56340167  .00023567  00000+0  74894-3 0  9990
2 67775  51.8830 239.4103 0014381  49.3151 310.9081 15.32422780  4450
KUIPER-00209            
1 67776U 26030N   26064.63417175 -.00060155  00000+0 -20050-2 0  9993
2 67776  51.8818 239.1302 0013084  56.1169 304.1058 15.30557280  4461
KUIPER-00213            
1 67777U 26030P   26064.56406909  .00032137  00000+0  10106-2 0  9997
2 67777  51.8797 239.4054 0014951  52.7193 307.5152 15.32578120  4457
